[{"OBJECT_NAME":"STARLINK-32133","OBJECT_ID":"2024-136E","EPOCH":"2026-03-09T21:38:05.379360","MEAN_MOTION":15.30195197,"ECCENTRICITY":0.00012385,"INCLINATION":53.1606,"RA_OF_ASC_NODE":74.9208,"ARG_OF_PERICENTER":86.9167,"MEAN_ANOMALY":273.1976,"EPHEMERIS_TYPE":0,"CLASSIFICATION_TYPE":"U","NORAD_CAT_ID":60333,"ELEMENT_SET_NO":999,"REV_AT_EPOCH":8969,"BSTAR":2.8447884e-5,"MEAN_MOTION_DOT":4.83e-6,"MEAN_MOTION_DDOT":0},{"OBJECT_NAME":"SCS-01 H","OBJECT_ID":"2025-100H","EPOCH":"2026-03-09T23:19:05.376864","MEAN_MOTION":15.31767757,"ECCENTRICITY":0.00071581,"INCLINATION":97.3749,"RA_OF_ASC_NODE":145.8085,"ARG_OF_PERICENTER":277.8492,"MEAN_ANOMALY":82.1937,"EPHEMERIS_TYPE":0,"CLASSIFICATION_TYPE":"U","NORAD_CAT_ID":63989,"ELEMENT_SET_NO":999,"REV_AT_EPOCH":4566,"BSTAR":0.0011436254,"MEAN_MOTION_DOT":0.00035149,"MEAN_MOTION_DDOT":0}]
